CENTISPACE-1 OBJECT E   
1 68354U 26060E   26083.94066822  .00000011  00000+0  32459-4 0  9994
2 68354  54.9778  19.4020 0012939 304.5263  55.4514 14.75207102   341
CENTISPACE-1 OBJECT F   
1 68355U 26060F   26083.94063030  .00000011  00000+0  32428-4 0  9999
2 68355  54.9772  19.4018 0013350 302.8819  57.0895 14.75231048   345
CENTISPACE-1 OBJECT G   
1 68356U 26060G   26083.94050583  .00000013  00000+0  32622-4 0  9997
2 68356  54.9881  19.4018 0013558 304.6884  55.2837 14.75313201   347
CENTISPACE-1 OBJECT H   
1 68357U 26060H   26083.94032623  .00000014  00000+0  32764-4 0  9991
2 68357  54.9844  19.3989 0014520 304.3894  55.5732 14.75426757   349
CENTISPACE-1 OBJECT J   
1 68358U 26060J   26083.94031501  .00000014  00000+0  32762-4 0  9994
2 68358  54.9872  19.3997 0013943 305.0772  54.8920 14.75435434   344
CENTISPACE-1 OBJECT K   
1 68359U 26060K   26083.94021635  .00000015  00000+0  32899-4 0  9994
2 68359  54.9803  19.3978 0014601 305.1643  54.7988 14.75497919   347
