[{"OBJECT_NAME":"CENTISPACE-1 OBJECT E","OBJECT_ID":"2026-060E","EPOCH":"2026-03-24T22:34:33.734208","MEAN_MOTION":14.75207102,"ECCENTRICITY":0.00129399,"INCLINATION":54.9778,"RA_OF_ASC_NODE":19.402,"ARG_OF_PERICENTER":304.5263,"MEAN_ANOMALY":55.4514,"EPHEMERIS_TYPE":0,"CLASSIFICATION_TYPE":"U","NORAD_CAT_ID":68354,"ELEMENT_SET_NO":999,"REV_AT_EPOCH":34,"BSTAR":3.2459004e-5,"MEAN_MOTION_DOT":1.1e-7,"MEAN_MOTION_DDOT":0},{"OBJECT_NAME":"CENTISPACE-1 OBJECT F","OBJECT_ID":"2026-060F","EPOCH":"2026-03-24T22:34:30.457920","MEAN_MOTION":14.75231048,"ECCENTRICITY":0.00133508,"INCLINATION":54.9772,"RA_OF_ASC_NODE":19.4018,"ARG_OF_PERICENTER":302.8819,"MEAN_ANOMALY":57.0895,"EPHEMERIS_TYPE":0,"CLASSIFICATION_TYPE":"U","NORAD_CAT_ID":68355,"ELEMENT_SET_NO":999,"REV_AT_EPOCH":34,"BSTAR":3.2427598e-5,"MEAN_MOTION_DOT":1.1e-7,"MEAN_MOTION_DDOT":0},{"OBJECT_NAME":"CENTISPACE-1 OBJECT G","OBJECT_ID":"2026-060G","EPOCH":"2026-03-24T22:34:19.703712","MEAN_MOTION":14.75313201,"ECCENTRICITY":0.00135589,"INCLINATION":54.9881,"RA_OF_ASC_NODE":19.4018,"ARG_OF_PERICENTER":304.6884,"MEAN_ANOMALY":55.2837,"EPHEMERIS_TYPE":0,"CLASSIFICATION_TYPE":"U","NORAD_CAT_ID":68356,"ELEMENT_SET_NO":999,"REV_AT_EPOCH":34,"BSTAR":3.2621887e-5,"MEAN_MOTION_DOT":1.3e-7,"MEAN_MOTION_DDOT":0},{"OBJECT_NAME":"CENTISPACE-1 OBJECT H","OBJECT_ID":"2026-060H","EPOCH":"2026-03-24T22:34:04.186272","MEAN_MOTION":14.75426757,"ECCENTRICITY":0.00145204,"INCLINATION":54.9844,"RA_OF_ASC_NODE":19.3989,"ARG_OF_PERICENTER":304.3894,"MEAN_ANOMALY":55.5732,"EPHEMERIS_TYPE":0,"CLASSIFICATION_TYPE":"U","NORAD_CAT_ID":68357,"ELEMENT_SET_NO":999,"REV_AT_EPOCH":34,"BSTAR":3.2763607e-5,"MEAN_MOTION_DOT":1.4e-7,"MEAN_MOTION_DDOT":0},{"OBJECT_NAME":"CENTISPACE-1 OBJECT J","OBJECT_ID":"2026-060J","EPOCH":"2026-03-24T22:34:03.216864","MEAN_MOTION":14.75435434,"ECCENTRICITY":0.00139436,"INCLINATION":54.9872,"RA_OF_ASC_NODE":19.3997,"ARG_OF_PERICENTER":305.0772,"MEAN_ANOMALY":54.892,"EPHEMERIS_TYPE":0,"CLASSIFICATION_TYPE":"U","NORAD_CAT_ID":68358,"ELEMENT_SET_NO":999,"REV_AT_EPOCH":34,"BSTAR":3.2762479e-5,"MEAN_MOTION_DOT":1.4e-7,"MEAN_MOTION_DDOT":0},{"OBJECT_NAME":"CENTISPACE-1 OBJECT K","OBJECT_ID":"2026-060K","EPOCH":"2026-03-24T22:33:54.692640","MEAN_MOTION":14.75497919,"ECCENTRICITY":0.0014601,"INCLINATION":54.9803,"RA_OF_ASC_NODE":19.3978,"ARG_OF_PERICENTER":305.1643,"MEAN_ANOMALY":54.7988,"EPHEMERIS_TYPE":0,"CLASSIFICATION_TYPE":"U","NORAD_CAT_ID":68359,"ELEMENT_SET_NO":999,"REV_AT_EPOCH":34,"BSTAR":3.2898939e-5,"MEAN_MOTION_DOT":1.5e-7,"MEAN_MOTION_DDOT":0}]
